[{"CCSDS_OMM_VERS":"2.0","COMMENT":"GENERATED VIA SPACE-TRACK.ORG API","CREATION_DATE":"2018-02-03T07:14:26","ORIGINATOR":"18 SPCS","OBJECT_NAME":"UPSAT","OBJECT_ID":"1998-067LX","CENTER_NAME":"EARTH","REF_FRAME":"TEME","TIME_SYSTEM":"UTC","MEAN_ELEMENT_THEORY":"SGP4","EPOCH":"2018-02-02T21:04:45.304032","MEAN_MOTION":"15.66422881","ECCENTRICITY":"0.00043880","INCLINATION":"51.6373","RA_OF_ASC_NODE":"317.0463","ARG_OF_PERICENTER":"108.9381","MEAN_ANOMALY":"251.2091","EPHEMERIS_TYPE":"0","CLASSIFICATION_TYPE":"U","NORAD_CAT_ID":"42716","ELEMENT_SET_NO":"999","REV_AT_EPOCH":"4066","BSTAR":"0.00021404000000","MEAN_MOTION_DOT":"0.00022207","MEAN_MOTION_DDOT":"0.0000000000000","SEMIMAJOR_AXIS":"6747.286","PERIOD":"91.929","APOAPSIS":"372.112","PERIAPSIS":"366.190","OBJECT_TYPE":"PAYLOAD","RCS_SIZE":"SMALL","COUNTRY_CODE":"GREC","LAUNCH_DATE":"1998-11-20","SITE":"TTMTR","DECAY_DATE":null,"FILE":"2242876","GP_ID":"117638887","TLE_LINE0":"0 UPSAT","TLE_LINE1":"1 42716U 98067LX  18033.87830213 +.00022207 +00000-0 +21404-3 0  9994","TLE_LINE2":"2 42716 051.6373 317.0463 0004388 108.9381 251.2091 15.66422881040663"},{"CCSDS_OMM_VERS":"2.0","COMMENT":"GENERATED VIA SPACE-TRACK.ORG API","CREATION_DATE":"2018-02-04T05:44:24","ORIGINATOR":"18 SPCS","OBJECT_NAME":"UPSAT","OBJECT_ID":"1998-067LX","CENTER_NAME":"EARTH","REF_FRAME":"TEME","TIME_SYSTEM":"UTC","MEAN_ELEMENT_THEORY":"SGP4","EPOCH":"2018-02-03T09:19:41.426688","MEAN_MOTION":"15.66443778","ECCENTRICITY":"0.00043650","INCLINATION":"51.6371","RA_OF_ASC_NODE":"314.4549","ARG_OF_PERICENTER":"111.0800","MEAN_ANOMALY":"249.0662","EPHEMERIS_TYPE":"0","CLASSIFICATION_TYPE":"U","NORAD_CAT_ID":"42716","ELEMENT_SET_NO":"999","REV_AT_EPOCH":"4074","BSTAR":"0.00018236000000","MEAN_MOTION_DOT":"0.00018844","MEAN_MOTION_DDOT":"0.0000000000000","SEMIMAJOR_AXIS":"6747.226","PERIOD":"91.927","APOAPSIS":"372.036","PERIAPSIS":"366.146","OBJECT_TYPE":"PAYLOAD","RCS_SIZE":"SMALL","COUNTRY_CODE":"GREC","LAUNCH_DATE":"1998-11-20","SITE":"TTMTR","DECAY_DATE":null,"FILE":"2243275","GP_ID":"117655649","TLE_LINE0":"0 UPSAT","TLE_LINE1":"1 42716U 98067LX  18034.38867392 +.00018844 +00000-0 +18236-3 0  9990","TLE_LINE2":"2 42716 051.6371 314.4549 0004365 111.0800 249.0662 15.66443778040749"},{"CCSDS_OMM_VERS":"2.0","COMMENT":"GENERATED VIA SPACE-TRACK.ORG API","CREATION_DATE":"2018-02-04T06:40:21","ORIGINATOR":"18 SPCS","OBJECT_NAME":"UPSAT","OBJECT_ID":"1998-067LX","CENTER_NAME":"EARTH","REF_FRAME":"TEME","TIME_SYSTEM":"UTC","MEAN_ELEMENT_THEORY":"SGP4","EPOCH":"2018-02-03T20:02:45.079872","MEAN_MOTION":"15.66462881","ECCENTRICITY":"0.00043830","INCLINATION":"51.6370","RA_OF_ASC_NODE":"312.1872","ARG_OF_PERICENTER":"112.7688","MEAN_ANOMALY":"247.3771","EPHEMERIS_TYPE":"0","CLASSIFICATION_TYPE":"U","NORAD_CAT_ID":"42716","ELEMENT_SET_NO":"999","REV_AT_EPOCH":"4081","BSTAR":"0.00019113000000","MEAN_MOTION_DOT":"0.00019796","MEAN_MOTION_DDOT":"0.0000000000000","SEMIMAJOR_AXIS":"6747.171","PERIOD":"91.926","APOAPSIS":"371.994","PERIAPSIS":"366.079","OBJECT_TYPE":"PAYLOAD","RCS_SIZE":"SMALL","COUNTRY_CODE":"GREC","LAUNCH_DATE":"1998-11-20","SITE":"TTMTR","DECAY_DATE":null,"FILE":"2243315","GP_ID":"117664465","TLE_LINE0":"0 UPSAT","TLE_LINE1":"1 42716U 98067LX  18034.83524398 +.00019796 +00000-0 +19113-3 0  9998","TLE_LINE2":"2 42716 051.6370 312.1872 0004383 112.7688 247.3771 15.66462881040810"},{"CCSDS_OMM_VERS":"2.0","COMMENT":"GENERATED VIA SPACE-TRACK.ORG API","CREATION_DATE":"2018-02-04T22:53:11","ORIGINATOR":"18 SPCS","OBJECT_NAME":"UPSAT","OBJECT_ID":"1998-067LX","CENTER_NAME":"EARTH","REF_FRAME":"TEME","TIME_SYSTEM":"UTC","MEAN_ELEMENT_THEORY":"SGP4","EPOCH":"2018-02-04T08:17:40.119072","MEAN_MOTION":"15.66483319","ECCENTRICITY":"0.00043730","INCLINATION":"51.6367","RA_OF_ASC_NODE":"309.5957","ARG_OF_PERICENTER":"113.3729","MEAN_ANOMALY":"246.7727","EPHEMERIS_TYPE":"0","CLASSIFICATION_TYPE":"U","NORAD_CAT_ID":"42716","ELEMENT_SET_NO":"999","REV_AT_EPOCH":"4089","BSTAR":"0.00018092000000","MEAN_MOTION_DOT":"0.00018721","MEAN_MOTION_DDOT":"0.0000000000000","SEMIMAJOR_AXIS":"6747.113","PERIOD":"91.925","APOAPSIS":"371.928","PERIAPSIS":"366.027","OBJECT_TYPE":"PAYLOAD","RCS_SIZE":"SMALL","COUNTRY_CODE":"GREC","LAUNCH_DATE":"1998-11-20","SITE":"TTMTR","DECAY_DATE":null,"FILE":"2243637","GP_ID":"117679717","TLE_LINE0":"0 UPSAT","TLE_LINE1":"1 42716U 98067LX  18035.34560323 +.00018721 +00000-0 +18092-3 0  9995","TLE_LINE2":"2 42716 051.6367 309.5957 0004373 113.3729 246.7727 15.66483319040893"},{"CCSDS_OMM_VERS":"2.0","COMMENT":"GENERATED VIA SPACE-TRACK.ORG API","CREATION_DATE":"2018-02-05T13:25:56","ORIGINATOR":"18 SPCS","OBJECT_NAME":"UPSAT","OBJECT_ID":"1998-067LX","CENTER_NAME":"EARTH","REF_FRAME":"TEME","TIME_SYSTEM":"UTC","MEAN_ELEMENT_THEORY":"SGP4","EPOCH":"2018-02-04T22:04:26.387040","MEAN_MOTION":"15.66506282","ECCENTRICITY":"0.00043890","INCLINATION":"51.6367","RA_OF_ASC_NODE":"306.6794","ARG_OF_PERICENTER":"115.8234","MEAN_ANOMALY":"244.3215","EPHEMERIS_TYPE":"0","CLASSIFICATION_TYPE":"U","NORAD_CAT_ID":"42716","ELEMENT_SET_NO":"999","REV_AT_EPOCH":"4098","BSTAR":"0.00019379000000","MEAN_MOTION_DOT":"0.00020116","MEAN_MOTION_DDOT":"0.0000000000000","SEMIMAJOR_AXIS":"6747.047","PERIOD":"91.924","APOAPSIS":"371.873","PERIAPSIS":"365.950","OBJECT_TYPE":"PAYLOAD","RCS_SIZE":"SMALL","COUNTRY_CODE":"GREC","LAUNCH_DATE":"1998-11-20","SITE":"TTMTR","DECAY_DATE":null,"FILE":"2243638","GP_ID":"117689294","TLE_LINE0":"0 UPSAT","TLE_LINE1":"1 42716U 98067LX  18035.91974985 +.00020116 +00000-0 +19379-3 0  9991","TLE_LINE2":"2 42716 051.6367 306.6794 0004389 115.8234 244.3215 15.66506282040986"},{"CCSDS_OMM_VERS":"2.0","COMMENT":"GENERATED VIA SPACE-TRACK.ORG API","CREATION_DATE":"2018-02-05T23:22:11","ORIGINATOR":"18 SPCS","OBJECT_NAME":"UPSAT","OBJECT_ID":"1998-067LX","CENTER_NAME":"EARTH","REF_FRAME":"TEME","TIME_SYSTEM":"UTC","MEAN_ELEMENT_THEORY":"SGP4","EPOCH":"2018-02-05T13:23:03.581376","MEAN_MOTION":"15.66535072","ECCENTRICITY":"0.00043810","INCLINATION":"51.6366","RA_OF_ASC_NODE":"303.4395","ARG_OF_PERICENTER":"118.3295","MEAN_ANOMALY":"241.8143","EPHEMERIS_TYPE":"0","CLASSIFICATION_TYPE":"U","NORAD_CAT_ID":"42716","ELEMENT_SET_NO":"999","REV_AT_EPOCH":"4108","BSTAR":"0.00022618000000","MEAN_MOTION_DOT":"0.00023611","MEAN_MOTION_DDOT":"0.0000000000000","SEMIMAJOR_AXIS":"6746.964","PERIOD":"91.922","APOAPSIS":"371.785","PERIAPSIS":"365.873","OBJECT_TYPE":"PAYLOAD","RCS_SIZE":"SMALL","COUNTRY_CODE":"GREC","LAUNCH_DATE":"1998-11-20","SITE":"TTMTR","DECAY_DATE":null,"FILE":"2244074","GP_ID":"117706893","TLE_LINE0":"0 UPSAT","TLE_LINE1":"1 42716U 98067LX  18036.55768034 +.00023611 +00000-0 +22618-3 0  9991","TLE_LINE2":"2 42716 051.6366 303.4395 0004381 118.3295 241.8143 15.66535072041087"},{"CCSDS_OMM_VERS":"2.0","COMMENT":"GENERATED VIA SPACE-TRACK.ORG API","CREATION_DATE":"2018-02-06T13:40:24","ORIGINATOR":"18 SPCS","OBJECT_NAME":"UPSAT","OBJECT_ID":"1998-067LX","CENTER_NAME":"EARTH","REF_FRAME":"TEME","TIME_SYSTEM":"UTC","MEAN_ELEMENT_THEORY":"SGP4","EPOCH":"2018-02-05T22:34:13.423296","MEAN_MOTION":"15.66552358","ECCENTRICITY":"0.00043670","INCLINATION":"51.6365","RA_OF_ASC_NODE":"301.4956","ARG_OF_PERICENTER":"119.6611","MEAN_ANOMALY":"240.4820","EPHEMERIS_TYPE":"0","CLASSIFICATION_TYPE":"U","NORAD_CAT_ID":"42716","ELEMENT_SET_NO":"999","REV_AT_EPOCH":"4114","BSTAR":"0.00023323000000","MEAN_MOTION_DOT":"0.00024384","MEAN_MOTION_DDOT":"0.0000000000000","SEMIMAJOR_AXIS":"6746.914","PERIOD":"91.921","APOAPSIS":"371.726","PERIAPSIS":"365.833","OBJECT_TYPE":"PAYLOAD","RCS_SIZE":"SMALL","COUNTRY_CODE":"GREC","LAUNCH_DATE":"1998-11-20","SITE":"TTMTR","DECAY_DATE":null,"FILE":"2244309","GP_ID":"117718297","TLE_LINE0":"0 UPSAT","TLE_LINE1":"1 42716U 98067LX  18036.94043314 +.00024384 +00000-0 +23323-3 0  9993","TLE_LINE2":"2 42716 051.6365 301.4956 0004367 119.6611 240.4820 15.66552358041147"},{"CCSDS_OMM_VERS":"2.0","COMMENT":"GENERATED VIA SPACE-TRACK.ORG API","CREATION_DATE":"2018-02-06T23:02:41","ORIGINATOR":"18 SPCS","OBJECT_NAME":"UPSAT","OBJECT_ID":"1998-067LX","CENTER_NAME":"EARTH","REF_FRAME":"TEME","TIME_SYSTEM":"UTC","MEAN_ELEMENT_THEORY":"SGP4","EPOCH":"2018-02-06T13:52:49.046016","MEAN_MOTION":"15.66578659","ECCENTRICITY":"0.00043490","INCLINATION":"51.6363","RA_OF_ASC_NODE":"298.2559","ARG_OF_PERICENTER":"122.5975","MEAN_ANOMALY":"237.5441","EPHEMERIS_TYPE":"0","CLASSIFICATION_TYPE":"U","NORAD_CAT_ID":"42716","ELEMENT_SET_NO":"999","REV_AT_EPOCH":"4124","BSTAR":"0.00022416000000","MEAN_MOTION_DOT":"0.00023436","MEAN_MOTION_DDOT":"0.0000000000000","SEMIMAJOR_AXIS":"6746.839","PERIOD":"91.920","APOAPSIS":"371.638","PERIAPSIS":"365.770","OBJECT_TYPE":"PAYLOAD","RCS_SIZE":"SMALL","COUNTRY_CODE":"GREC","LAUNCH_DATE":"1998-11-20","SITE":"TTMTR","DECAY_DATE":null,"FILE":"2244486","GP_ID":"117731857","TLE_LINE0":"0 UPSAT","TLE_LINE1":"1 42716U 98067LX  18037.57834544 +.00023436 +00000-0 +22416-3 0  9995","TLE_LINE2":"2 42716 051.6363 298.2559 0004349 122.5975 237.5441 15.66578659041242"}]